STARLINK-2615           
1 48678U 21044AS  26068.33317153 -.00003211  00000+0 -96377-4 0  9996
2 48678  53.1594 105.3522 0000972  93.9178 266.1934 15.30189225263913
PHISAT 2                
1 60470U 24149C   26068.78834181  .00008925  00000+0  31421-3 0  9996
2 60470  97.3806 148.6498 0001175 168.6230 191.5037 15.29548631 86792
